[{"OBJECT_NAME":"STARLINK-2722","OBJECT_ID":"2021-040AW","EPOCH":"2026-03-09T14:43:11.565120","MEAN_MOTION":15.08204788,"ECCENTRICITY":8.64e-5,"INCLINATION":53.0609,"RA_OF_ASC_NODE":191.8446,"ARG_OF_PERICENTER":96.191,"MEAN_ANOMALY":263.9178,"EPHEMERIS_TYPE":0,"CLASSIFICATION_TYPE":"U","NORAD_CAT_ID":48472,"ELEMENT_SET_NO":999,"REV_AT_EPOCH":26647,"BSTAR":0.00085362,"MEAN_MOTION_DOT":0.00013092,"MEAN_MOTION_DDOT":0},{"OBJECT_NAME":"PRSC-S1","OBJECT_ID":"2025-164A","EPOCH":"2026-03-09T14:34:55.095168","MEAN_MOTION":15.0891951,"ECCENTRICITY":0.0004466,"INCLINATION":41.129,"RA_OF_ASC_NODE":129.3637,"ARG_OF_PERICENTER":348.3012,"MEAN_ANOMALY":11.7698,"EPHEMERIS_TYPE":0,"CLASSIFICATION_TYPE":"U","NORAD_CAT_ID":65055,"ELEMENT_SET_NO":999,"REV_AT_EPOCH":3340,"BSTAR":0.00046631,"MEAN_MOTION_DOT":7.316e-5,"MEAN_MOTION_DDOT":0}]
