STARLINK-2722           
1 48472U 21040AW  26068.61332830  .00013092  00000+0  85362-3 0  9991
2 48472  53.0609 191.8446 0000864  96.1910 263.9178 15.08204788266471
PRSC-S1                 
1 65055U 25164A   26068.60758212  .00007316  00000+0  46631-3 0  9991
2 65055  41.1290 129.3637 0004466 348.3012  11.7698 15.08919510 33403
